{"type": "FeatureCollection", "features": [ {"type": "Feature", "properties": {"norad_id": 40115, "name": "WORLDVIEW-3 (WV-3)", "group": "resource", "lat": -49.151372266014654, "lon": -126.30713452858437, "alt_km": 616.9614118736681, "timestamp": "2025-12-16T15:45:50.671126+00:00", "meta": {"OBJECT_NAME": "WORLDVIEW-3 (WV-3)", "OBJECT_ID": "2014-048A", "EPOCH": "2025-12-15T22:34:03.125280", "MEAN_MOTION": 14.85519525, "ECCENTRICITY": 0.00050314, "INCLINATION": 97.8614, "RA_OF_ASC_NODE": 62.1804, "ARG_OF_PERICENTER": 174.346, "MEAN_ANOMALY": 185.7813, "EPHEMERIS_TYPE": 0, "CLASSIFICATION_TYPE": "U", "NORAD_CAT_ID": 40115, "ELEMENT_SET_NO": 999, "REV_AT_EPOCH": 61471, "BSTAR": 0.00013190448, "MEAN_MOTION_DOT": 1.086e-05, "MEAN_MOTION_DDOT": 0}, "tle": {"line1": "1 40115U 14048A   25349.94031395  .00001086  00000+0  13190-3 0  9996", "line2": "2 40115  97.8614  62.1804 0005031 174.3460 185.7813 14.85519525614710"}}, "geometry": {"type": "Point", "coordinates": [-126.30713452858437, -49.151372266014654]}}, {"type": "Feature", "properties": {"norad_id": 40118, "name": "GAOFEN-2", "group": "resource", "lat": -21.909211594500476, "lon": 53.09033365547094, "alt_km": 636.113447002157, "timestamp": "2025-12-16T15:45:50.671142+00:00", "meta": {"OBJECT_NAME": "GAOFEN-2", "OBJECT_ID": "2014-049A", "EPOCH": "2025-12-15T23:38:40.484256", "MEAN_MOTION": 14.80615107, "ECCENTRICITY": 0.00086522, "INCLINATION": 98.0384, "RA_OF_ASC_NODE": 49.1593, "ARG_OF_PERICENTER": 103.8455, "MEAN_ANOMALY": 256.3721, "EPHEMERIS_TYPE": 0, "CLASSIFICATION_TYPE": "U", "NORAD_CAT_ID": 40118, "ELEMENT_SET_NO": 999, "REV_AT_EPOCH": 61212, "BSTAR": 8.7779571e-05, "MEAN_MOTION_DOT": 6.2e-06, "MEAN_MOTION_DDOT": 0}, "tle": {"line1": "1 40118U 14049A   25349.98519079  .00000620  00000+0  87780-4 0  9994", "line2": "2 40118  98.0384  49.1593 0008652 103.8455 256.3721 14.80615107612127"}}, "geometry": {"type": "Point", "coordinates": [53.09033365547094, -21.909211594500476]}}, {"type": "Feature", "properties": {"norad_id": 40143, "name": "YAOGAN-21", "group": "resource", "lat": -8.07520179539899, "lon": -147.22449239993182, "alt_km": 504.84008582335446, "timestamp": "2025-12-16T15:45:50.671159+00:00", "meta": {"OBJECT_NAME": "YAOGAN-21", "OBJECT_ID": "2014-053A", "EPOCH": "2025-12-15T23:10:50.799072", "MEAN_MOTION": 15.23714289, "ECCENTRICITY": 0.00095314, "INCLINATION": 97.176, "RA_OF_ASC_NODE": 33.1387, "ARG_OF_PERICENTER": 31.3842, "MEAN_ANOMALY": 328.7962, "EPHEMERIS_TYPE": 0, "CLASSIFICATION_TYPE": "U", "NORAD_CAT_ID": 40143, "ELEMENT_SET_NO": 999, "REV_AT_EPOCH": 62703, "BSTAR": 0.0001791857, "MEAN_MOTION_DOT": 4.24e-05, "MEAN_MOTION_DDOT": 0}, "tle": {"line1": "1 40143U 14053A   25349.96586573  .00004240  00000+0  17919-3 0  9996", "line2": "2 40143  97.1760  33.1387 0009531  31.3842 328.7962 15.23714289627035"}}, "geometry": {"type": "Point", "coordinates": [-147.22449239993182, -8.07520179539899]}}, {"type": "Feature", "properties": {"norad_id": 40275, "name": "YAOGAN-22", "group": "resource", "lat": -27.169354936279976, "lon": 139.72231046052767, "alt_km": 1207.6672890550562, "timestamp": "2025-12-16T15:45:50.671176+00:00", "meta": {"OBJECT_NAME": "YAOGAN-22", "OBJECT_ID": "2014-063A", "EPOCH": "2025-12-15T21:39:07.972704", "MEAN_MOTION": 13.15522774, "ECCENTRICITY": 0.00059708, "INCLINATION": 100.7422, "RA_OF_ASC_NODE": 133.3663, "ARG_OF_PERICENTER": 240.4616, "MEAN_ANOMALY": 119.5901, "EPHEMERIS_TYPE": 0, "CLASSIFICATION_TYPE": "U", "NORAD_CAT_ID": 40275, "ELEMENT_SET_NO": 999, "REV_AT_EPOCH": 53571, "BSTAR": 8.7557771e-05, "MEAN_MOTION_DOT": -1.4e-07, "MEAN_MOTION_DDOT": 0}, "tle": {"line1": "1 40275U 14063A   25349.90217561 -.00000014  00000+0  87558-4 0  9998", "line2": "2 40275 100.7422 133.3663 0005970 240.4616 119.5901 13.15522774535719"}}, "geometry": {"type": "Point", "coordinates": [139.72231046052767, -27.169354936279976]}}, {"type": "Feature", "properties": {"norad_id": 40298, "name": "ASNARO", "group": "resource", "lat": 2.501421656980593, "lon": -113.16884361592349, "alt_km": 508.3603284740029, "timestamp": "2025-12-16T15:45:50.671192+00:00", "meta": {"OBJECT_NAME": "ASNARO", "OBJECT_ID": "2014-070A", "EPOCH": "2025-12-15T23:10:56.856576", "MEAN_MOTION": 15.19562397, "ECCENTRICITY": 0.00055926, "INCLINATION": 97.3649, "RA_OF_ASC_NODE": 65.8334, "ARG_OF_PERICENTER": 113.2305, "MEAN_ANOMALY": 246.9519, "EPHEMERIS_TYPE": 0, "CLASSIFICATION_TYPE": "U", "NORAD_CAT_ID": 40298, "ELEMENT_SET_NO": 999, "REV_AT_EPOCH": 61618, "BSTAR": 0.00027784245, "MEAN_MOTION_DOT": 5.845e-05, "MEAN_MOTION_DDOT": 0}, "tle": {"line1": "1 40298U 14070A   25349.96593584  .00005845  00000+0  27784-3 0  9999", "line2": "2 40298  97.3649  65.8334 0005592 113.2305 246.9519 15.19562397616184"}}, "geometry": {"type": "Point", "coordinates": [-113.16884361592349, 2.501421656980593]}}, {"type": "Feature", "properties": {"norad_id": 40310, "name": "YAOGAN-24", "group": "resource", "lat": -76.79387430279438, "lon": -95.71332566797138, "alt_km": 655.9036245964426, "timestamp": "2025-12-16T15:45:50.671209+00:00", "meta": {"OBJECT_NAME": "YAOGAN-24", "OBJECT_ID": "2014-072A", "EPOCH": "2025-12-15T22:19:30.253728", "MEAN_MOTION": 14.76185289, "ECCENTRICITY": 0.00148661, "INCLINATION": 98.1214, "RA_OF_ASC_NODE": 121.0397, "ARG_OF_PERICENTER": 128.2599, "MEAN_ANOMALY": 231.995, "EPHEMERIS_TYPE": 0, "CLASSIFICATION_TYPE": "U", "NORAD_CAT_ID": 40310, "ELEMENT_SET_NO": 999, "REV_AT_EPOCH": 59668, "BSTAR": 0.00015981311, "MEAN_MOTION_DOT": 1.054e-05, "MEAN_MOTION_DDOT": 0}, "tle": {"line1": "1 40310U 14072A   25349.93021127  .00001054  00000+0  15981-3 0  9996", "line2": "2 40310  98.1214 121.0397 0014866 128.2599 231.9950 14.76185289596683"}}, "geometry": {"type": "Point", "coordinates": [-95.71332566797138, -76.79387430279438]}}, {"type": "Feature", "properties": {"norad_id": 40336, "name": "CBERS 4", "group": "resource", "lat": 32.15252564844405, "lon": -126.17564933072666, "alt_km": 770.5173771348909, "timestamp": "2025-12-16T15:45:50.671226+00:00", "meta": {"OBJECT_NAME": "CBERS 4", "OBJECT_ID": "2014-079A", "EPOCH": "2025-12-16T00:01:28.070112", "MEAN_MOTION": 14.35518749, "ECCENTRICITY": 0.00017074, "INCLINATION": 98.3309, "RA_OF_ASC_NODE": 47.9063, "ARG_OF_PERICENTER": 108.2894, "MEAN_ANOMALY": 251.8478, "EPHEMERIS_TYPE": 0, "CLASSIFICATION_TYPE": "U", "NORAD_CAT_ID": 40336, "ELEMENT_SET_NO": 999, "REV_AT_EPOCH": 57767, "BSTAR": 3.2616705e-05, "MEAN_MOTION_DOT": 5.2e-07, "MEAN_MOTION_DDOT": 0}, "tle": {"line1": "1 40336U 14079A   25350.00101933  .00000052  00000+0  32617-4 0  9998", "line2": "2 40336  98.3309  47.9063 0001707 108.2894 251.8478 14.35518749577670"}}, "geometry": {"type": "Point", "coordinates": [-126.17564933072666, 32.15252564844405]}}, {"type": "Feature", "properties": {"norad_id": 40362, "name": "YAOGAN-26", "group": "resource", "lat": 55.823271461742564, "lon": -178.28525177460315, "alt_km": 443.59344069117196, "timestamp": "2025-12-16T15:45:50.671245+00:00", "meta": {"OBJECT_NAME": "YAOGAN-26", "OBJECT_ID": "2014-088A", "EPOCH": "2025-12-15T23:37:46.183584", "MEAN_MOTION": 15.39415898, "ECCENTRICITY": 0.00057124, "INCLINATION": 97.0643, "RA_OF_ASC_NODE": 350.5428, "ARG_OF_PERICENTER": 19.9653, "MEAN_ANOMALY": 340.1816, "EPHEMERIS_TYPE": 0, "CLASSIFICATION_TYPE": "U", "NORAD_CAT_ID": 40362, "ELEMENT_SET_NO": 999, "REV_AT_EPOCH": 60944, "BSTAR": 0.0002929273, "MEAN_MOTION_DOT": 0.00011396, "MEAN_MOTION_DDOT": 0}, "tle": {"line1": "1 40362U 14088A   25349.98456231  .00011396  00000+0  29293-3 0  9994", "line2": "2 40362  97.0643 350.5428 0005712  19.9653 340.1816 15.39415898609440"}}, "geometry": {"type": "Point", "coordinates": [-178.28525177460315, 55.823271461742564]}}, {"type": "Feature", "properties": {"norad_id": 40376, "name": "SMAP", "group": "resource", "lat": 21.646282665799767, "lon": -7.927602792367946, "alt_km": 681.8480163782106, "timestamp": "2025-12-16T15:45:50.671262+00:00", "meta": {"OBJECT_NAME": "SMAP", "OBJECT_ID": "2015-003A", "EPOCH": "2025-12-15T23:15:14.030496", "MEAN_MOTION": 14.63349093, "ECCENTRICITY": 0.000121, "INCLINATION": 98.129, "RA_OF_ASC_NODE": 354.6462, "ARG_OF_PERICENTER": 90.798, "MEAN_ANOMALY": 269.3361, "EPHEMERIS_TYPE": 0, "CLASSIFICATION_TYPE": "U", "NORAD_CAT_ID": 40376, "ELEMENT_SET_NO": 999, "REV_AT_EPOCH": 58082, "BSTAR": 0.00011332631, "MEAN_MOTION_DOT": 5.38e-06, "MEAN_MOTION_DDOT": 0}, "tle": {"line1": "1 40376U 15003A   25349.96891239  .00000538  00000+0  11333-3 0  9998", "line2": "2 40376  98.1290 354.6462 0001210  90.7980 269.3361 14.63349093580823"}}, "geometry": {"type": "Point", "coordinates": [-7.927602792367946, 21.646282665799767]}}, {"type": "Feature", "properties": {"norad_id": 40536, "name": "KOMPSAT-3A", "group": "resource", "lat": 49.75629792941171, "lon": 154.3926051315613, "alt_km": 426.1525479404527, "timestamp": "2025-12-16T15:45:50.671279+00:00", "meta": {"OBJECT_NAME": "KOMPSAT-3A", "OBJECT_ID": "2015-014A", "EPOCH": "2025-12-15T23:39:06.577056", "MEAN_MOTION": 15.44067006, "ECCENTRICITY": 0.00051582, "INCLINATION": 97.6783, "RA_OF_ASC_NODE": 324.5117, "ARG_OF_PERICENTER": 119.52, "MEAN_ANOMALY": 240.6562, "EPHEMERIS_TYPE": 0, "CLASSIFICATION_TYPE": "U", "NORAD_CAT_ID": 40536, "ELEMENT_SET_NO": 999, "REV_AT_EPOCH": 59345, "BSTAR": 0.00032714519, "MEAN_MOTION_DOT": 0.00014866, "MEAN_MOTION_DDOT": 0}, "tle": {"line1": "1 40536U 15014A   25349.98549279  .00014866  00000+0  32715-3 0  9990", "line2": "2 40536  97.6783 324.5117 0005158 119.5200 240.6562 15.44067006593454"}}, "geometry": {"type": "Point", "coordinates": [154.3926051315613, 49.75629792941171]}}]}